EUTELSAT 8 WEST B       
1 40875U 15039B   25299.82932501 -.00000054  00000+0  00000+0 0  9997
2 40875   0.0696   4.0337 0003965 216.6259 105.3476  1.00271730 37319
EUTELSAT 9B             
1 41310U 16005A   25299.83270502  .00000074  00000+0  00000+0 0  9994
2 41310   0.0742  72.5614 0003783 171.6050 100.0838  1.00273351 35774
EUTELSAT 65 WEST A      
1 41382U 16014A   25299.81805830 -.00000265  00000+0  00000+0 0  9992
2 41382   0.0662  41.1169 0002222 178.0456  45.6112  1.00273416 35196
EUTELSAT 117 WEST B     
1 41589U 16038B   25299.48905610  .00000000  00000+0  00000+0 0  9993
2 41589   0.0104 103.0012 0000272 171.8813 179.3057  1.00270588 34326
EUTELSAT 172B           
1 42741U 17029B   25299.79370484  .00000007  00000+0  00000+0 0  9991
2 42741   0.0191 174.1632 0000273 249.2568  69.7654  1.00273079 31395
EUTELSAT 7C             
1 44334U 19034B   25299.83235837  .00000060  00000+0  00000+0 0  9995
2 44334   0.0664 186.3315 0003119   7.7954 147.9946  1.00271245  4498
EUTELSAT 5 WEST B       
1 44624U 19067A   25299.82993169 -.00000030  00000+0  00000+0 0  9999
2 44624   0.0679   1.5013 0003070 212.3309 115.4336  1.00271123 22097
EUTELSAT KONNECT        
1 45027U 20005B   25299.83235837  .00000061  00000+0  00000+0 0  9996
2 45027   0.0663  89.1617 0001147 164.7404  88.4253  1.00269062 21982
